start=new Date('2021-11-01T00:00:00.000Z').valueOf();
sats=[{"MEAN_MOTION_DOT":"0.00623539","MEAN_ANOMALY":"236.2675","NORAD_CAT_ID":"47364","MEAN_MOTION_DDOT":"0.0000000000000","EPOCH":"2021-10-31T19:44:40.936992","GP_ID":"188607469","TLE_LINE2":"2 47364  53.0560 358.3426 0001434 123.8458 236.2675 15.22236980 43410","ARG_OF_PERICENTER":"123.8458","RA_OF_ASC_NODE":"358.3426","ECCENTRICITY":"0.00014340","CLASSIFICATION_TYPE":"U","APOAPSIS":"500.083","EPHEMERIS_TYPE":"0","COUNTRY_CODE":"US","REV_AT_EPOCH":"4341","OBJECT_TYPE":"PAYLOAD","MEAN_ELEMENT_THEORY":"SGP4","SITE":"AFETR","OBJECT_ID":"2021-005R","PERIOD":"94.598","SEMIMAJOR_AXIS":"6877.232","INCLINATION":"53.0560","RCS_SIZE":"LARGE","BSTAR":"0.02490300000000","DECAY_DATE":null,"PERIAPSIS":"498.111","LAUNCH_DATE":"2021-01-20","REF_FRAME":"TEME","TLE_LINE1":"1 47364U 21005R   21304.82269603  .00623539  00000-0  24903-1 0  9995","FILE":"3194950","MEAN_MOTION":"15.22236980","OBJECT_NAME":"STARLINK-2079","TIME_SYSTEM":"UTC","ELEMENT_SET_NO":"999","CENTER_NAME":"EARTH"},{"TLE_LINE2":"2 47365  53.0479 252.2385 0005132 305.5745  54.4794 15.73249092 45545","ARG_OF_PERICENTER":"305.5745","RA_OF_ASC_NODE":"252.2385","ECCENTRICITY":"0.00051320","MEAN_MOTION_DOT":"0.00081369","MEAN_ANOMALY":"54.4794","NORAD_CAT_ID":"47365","MEAN_MOTION_DDOT":"0.0000000000000","EPOCH":"2021-10-31T13:49:17.241600","GP_ID":"188584894","REV_AT_EPOCH":"4554","OBJECT_TYPE":"PAYLOAD","MEAN_ELEMENT_THEORY":"SGP4","SITE":"AFETR","CLASSIFICATION_TYPE":"U","APOAPSIS":"353.073","COUNTRY_CODE":"US","EPHEMERIS_TYPE":"0","BSTAR":"0.00057692000000","DECAY_DATE":null,"PERIAPSIS":"346.168","OBJECT_ID":"2021-005S","PERIOD":"91.530","SEMIMAJOR_AXIS":"6727.755","INCLINATION":"53.0479","RCS_SIZE":"LARGE","FILE":"3194871","MEAN_MOTION":"15.73249092","OBJECT_NAME":"STARLINK-2080","TIME_SYSTEM":"UTC","CENTER_NAME":"EARTH","ELEMENT_SET_NO":"999","LAUNCH_DATE":"2021-01-20","REF_FRAME":"TEME","TLE_LINE1":"1 47365U 21005S   21304.57589400  .00081369  00000-0  57692-3 0  9990"},{"PERIOD":"95.593","OBJECT_ID":"2021-005T","SEMIMAJOR_AXIS":"6925.385","RCS_SIZE":"LARGE","INCLINATION":"53.0568","BSTAR":"-0.00012201000000","PERIAPSIS":"546.300","DECAY_DATE":null,"LAUNCH_DATE":"2021-01-20","REF_FRAME":"TEME","TLE_LINE1":"1 47366U 21005T   21304.85842330 -.00002098  00000-0 -12201-3 0  9997","FILE":"3194950","MEAN_MOTION":"15.06388191","TIME_SYSTEM":"UTC","OBJECT_NAME":"STARLINK-2081","CENTER_NAME":"EARTH","ELEMENT_SET_NO":"999","MEAN_ANOMALY":"277.8720","MEAN_MOTION_DOT":"-0.00002098","NORAD_CAT_ID":"47366","GP_ID":"188605967","EPOCH":"2021-10-31T20:36:07.773120","MEAN_MOTION_DDOT":"0.0000000000000","ARG_OF_PERICENTER":"82.2425","TLE_LINE2":"2 47366  53.0568 358.6466 0001372  82.2425 277.8720 15.06388191 43416","RA_OF_ASC_NODE":"358.6466","ECCENTRICITY":"0.00013720","CLASSIFICATION_TYPE":"U","APOAPSIS":"548.200","COUNTRY_CODE":"US","EPHEMERIS_TYPE":"0","REV_AT_EPOCH":"4341","OBJECT_TYPE":"PAYLOAD","MEAN_ELEMENT_THEORY":"SGP4","SITE":"AFETR"},{"FILE":"3194950","MEAN_MOTION":"15.06403022","TIME_SYSTEM":"UTC","OBJECT_NAME":"STARLINK-2082","ELEMENT_SET_NO":"999","CENTER_NAME":"EARTH","LAUNCH_DATE":"2021-01-20","REF_FRAME":"TEME","TLE_LINE1":"1 47367U 21005U   21304.88421519  .00001770  00000-0  13769-3 0  9997","BSTAR":"0.00013769000000","PERIAPSIS":"546.418","DECAY_DATE":null,"PERIOD":"95.592","OBJECT_ID":"2021-005U","SEMIMAJOR_AXIS":"6925.339","RCS_SIZE":"LARGE","INCLINATION":"53.0559","REV_AT_EPOCH":"4342","OBJECT_TYPE":"PAYLOAD","SITE":"AFETR","MEAN_ELEMENT_THEORY":"SGP4","CLASSIFICATION_TYPE":"U","APOAPSIS":"547.990","COUNTRY_CODE":"US","EPHEMERIS_TYPE":"0","ARG_OF_PERICENTER":"88.6655","TLE_LINE2":"2 47367  53.0559 358.5454 0001135  88.6655 271.4464 15.06403022 43422","RA_OF_ASC_NODE":"358.5454","ECCENTRICITY":"0.00011350","MEAN_ANOMALY":"271.4464","MEAN_MOTION_DOT":"0.00001770","NORAD_CAT_ID":"47367","GP_ID":"188606217","EPOCH":"2021-10-31T21:13:16.192416","MEAN_MOTION_DDOT":"0.0000000000000"},{"PERIOD":"95.591","OBJECT_ID":"2021-005V","SEMIMAJOR_AXIS":"6925.292","RCS_SIZE":"LARGE","INCLINATION":"53.0558","BSTAR":"0.00039722000000","PERIAPSIS":"546.196","DECAY_DATE":null,"LAUNCH_DATE":"2021-01-20","REF_FRAME":"TEME","TLE_LINE1":"1 47368U 21005V   21304.87682404  .00005643  00000-0  39722-3 0  9999","FILE":"3194634","MEAN_MOTION":"15.06418510","TIME_SYSTEM":"UTC","OBJECT_NAME":"STARLINK-2084","ELEMENT_SET_NO":"999","CENTER_NAME":"EARTH","MEAN_ANOMALY":"266.9393","MEAN_MOTION_DOT":"0.00005643","NORAD_CAT_ID":"47368","GP_ID":"188579173","MEAN_MOTION_DDOT":"0.0000000000000","EPOCH":"2021-10-31T21:02:37.597056","ARG_OF_PERICENTER":"93.1755","TLE_LINE2":"2 47368  53.0558 358.5680 0001388  93.1755 266.9393 15.06418510 44367","RA_OF_ASC_NODE":"358.5680","ECCENTRICITY":"0.00013880","CLASSIFICATION_TYPE":"U","APOAPSIS":"548.118","COUNTRY_CODE":"US","EPHEMERIS_TYPE":"0","REV_AT_EPOCH":"4436","OBJECT_TYPE":"PAYLOAD","SITE":"AFETR","MEAN_ELEMENT_THEORY":"SGP4"},{"REV_AT_EPOCH":"4369","OBJECT_TYPE":"PAYLOAD","MEAN_ELEMENT_THEORY":"SGP4","SITE":"AFETR","CLASSIFICATION_TYPE":"U","APOAPSIS":"548.129","EPHEMERIS_TYPE":"0","COUNTRY_CODE":"US","ARG_OF_PERICENTER":"76.0196","TLE_LINE2":"2 47369  53.0552 338.8469 0001364  76.0196 284.0944 15.06409463 43696","RA_OF_ASC_NODE":"338.8469","ECCENTRICITY":"0.00013640","MEAN_ANOMALY":"284.0944","MEAN_MOTION_DOT":"0.00004026","NORAD_CAT_ID":"47369","GP_ID":"188607213","MEAN_MOTION_DDOT":"0.0000000000000","EPOCH":"2021-10-31T19:35:04.522848","FILE":"3194950","MEAN_MOTION":"15.06409463","TIME_SYSTEM":"UTC","OBJECT_NAME":"STARLINK-2085","CENTER_NAME":"EARTH","ELEMENT_SET_NO":"999","LAUNCH_DATE":"2021-01-20","REF_FRAME":"TEME","TLE_LINE1":"1 47369U 21005W   21304.81602457  .00004026  00000-0  28894-3 0  9996","BSTAR":"0.00028894000000","PERIAPSIS":"546.240","DECAY_DATE":null,"PERIOD":"95.592","OBJECT_ID":"2021-005W","SEMIMAJOR_AXIS":"6925.320","RCS_SIZE":"LARGE","INCLINATION":"53.0552"},{"FILE":"3194950","MEAN_MOTION":"15.06412601","TIME_SYSTEM":"UTC","OBJECT_NAME":"STARLINK-2086","CENTER_NAME":"EARTH","ELEMENT_SET_NO":"999","LAUNCH_DATE":"2021-01-20","REF_FRAME":"TEME","TLE_LINE1":"1 47370U 21005X   21304.77365794  .00006291  00000-0  44070-3 0  9993","BSTAR":"0.00044070000000","PERIAPSIS":"546.135","DECAY_DATE":null,"PERIOD":"95.591","OBJECT_ID":"2021-005X","SEMIMAJOR_AXIS":"6925.310","RCS_SIZE":"LARGE","INCLINATION":"53.0605","REV_AT_EPOCH":"4397","OBJECT_TYPE":"PAYLOAD","SITE":"AFETR","MEAN_ELEMENT_THEORY":"SGP4","CLASSIFICATION_TYPE":"U","APOAPSIS":"548.215","COUNTRY_CODE":"US","EPHEMERIS_TYPE":"0","ARG_OF_PERICENTER":"71.7134","TLE_LINE2":"2 47370  53.0605 319.0097 0001502  71.7134 288.4019 15.06412601 43973","RA_OF_ASC_NODE":"319.0097","ECCENTRICITY":"0.00015020","MEAN_ANOMALY":"288.4019","MEAN_MOTION_DOT":"0.00006291","NORAD_CAT_ID":"47370","GP_ID":"188606468","MEAN_MOTION_DDOT":"0.0000000000000","EPOCH":"2021-10-31T18:34:04.046016"},{"CLASSIFICATION_TYPE":"U","EPHEMERIS_TYPE":"0","COUNTRY_CODE":"US","APOAPSIS":"548.218","REV_AT_EPOCH":"4342","SITE":"AFETR","MEAN_ELEMENT_THEORY":"SGP4","OBJECT_TYPE":"PAYLOAD","MEAN_MOTION_DOT":"0.00004347","MEAN_ANOMALY":"273.6011","MEAN_MOTION_DDOT":"0.0000000000000","EPOCH":"2021-10-31T21:23:53.173824","GP_ID":"188606718","NORAD_CAT_ID":"47371","TLE_LINE2":"2 47371  53.0554 358.5019 0001478  86.5147 273.6011 15.06406361 43423","ARG_OF_PERICENTER":"86.5147","ECCENTRICITY":"0.00014780","RA_OF_ASC_NODE":"358.5019","LAUNCH_DATE":"2021-01-20","TLE_LINE1":"1 47371U 21005Y   21304.89158766  .00004347  00000-0  31046-3 0  9995","REF_FRAME":"TEME","MEAN_MOTION":"15.06406361","FILE":"3194950","CENTER_NAME":"EARTH","ELEMENT_SET_NO":"999","OBJECT_NAME":"STARLINK-2088","TIME_SYSTEM":"UTC","OBJECT_ID":"2021-005Y","PERIOD":"95.592","INCLINATION":"53.0554","RCS_SIZE":"LARGE","SEMIMAJOR_AXIS":"6925.329","BSTAR":"0.00031046000000","DECAY_DATE":null,"PERIAPSIS":"546.170"},{"LAUNCH_DATE":"2021-01-20","REF_FRAME":"TEME","TLE_LINE1":"1 47372U 21005Z   21304.85609082 -.00000531  00000-0 -16745-4 0  9997","FILE":"3194950","MEAN_MOTION":"15.06395951","TIME_SYSTEM":"UTC","OBJECT_NAME":"STARLINK-2089","CENTER_NAME":"EARTH","ELEMENT_SET_NO":"999","PERIOD":"95.592","OBJECT_ID":"2021-005Z","SEMIMAJOR_AXIS":"6925.361","RCS_SIZE":"LARGE","INCLINATION":"53.0552","BSTAR":"-0.00001674500000","PERIAPSIS":"546.355","DECAY_DATE":null,"CLASSIFICATION_TYPE":"U","APOAPSIS":"548.096","EPHEMERIS_TYPE":"0","COUNTRY_CODE":"US","REV_AT_EPOCH":"4348","OBJECT_TYPE":"PAYLOAD","MEAN_ELEMENT_THEORY":"SGP4","SITE":"AFETR","MEAN_ANOMALY":"286.1453","MEAN_MOTION_DOT":"-0.00000531","NORAD_CAT_ID":"47372","GP_ID":"188607470","MEAN_MOTION_DDOT":"0.0000000000000","EPOCH":"2021-10-31T20:32:46.246848","ARG_OF_PERICENTER":"73.9675","TLE_LINE2":"2 47372  53.0552 353.6471 0001257  73.9675 286.1453 15.06395951 43488","RA_OF_ASC_NODE":"353.6471","ECCENTRICITY":"0.00012570"},{"LAUNCH_DATE":"2021-01-20","REF_FRAME":"TEME","TLE_LINE1":"1 47373U 21005AA  21304.88791582 -.00000100  00000-0  12160-4 0  9996","FILE":"3194950","MEAN_MOTION":"15.06389435","TIME_SYSTEM":"UTC","OBJECT_NAME":"STARLINK-2092","CENTER_NAME":"EARTH","ELEMENT_SET_NO":"999","PERIOD":"95.593","OBJECT_ID":"2021-005AA","SEMIMAJOR_AXIS":"6925.381","RCS_SIZE":"LARGE","INCLINATION":"53.0554","BSTAR":"0.00001216000000","PERIAPSIS":"546.269","DECAY_DATE":null,"CLASSIFICATION_TYPE":"U","APOAPSIS":"548.223","EPHEMERIS_TYPE":"0","COUNTRY_CODE":"US","REV_AT_EPOCH":"4342","OBJECT_TYPE":"PAYLOAD","MEAN_ELEMENT_THEORY":"SGP4","SITE":"AFETR","MEAN_ANOMALY":"279.1587","MEAN_MOTION_DOT":"-0.00000100","NORAD_CAT_ID":"47373","GP_ID":"188607714","MEAN_MOTION_DDOT":"0.0000000000000","EPOCH":"2021-10-31T21:18:35.926848","ARG_OF_PERICENTER":"80.9561","TLE_LINE2":"2 47373  53.0554 358.5118 0001411  80.9561 279.1587 15.06389435 43421","RA_OF_ASC_NODE":"358.5118","ECCENTRICITY":"0.00014110"}];
